{
  "type": "FeatureCollection",
  "features": [
    {
      "type": "Feature",
      "properties": {
        "id": "MW-01",
        "layer": 1,
        "screen_top": 85.0,
        "screen_bottom": 69.0,
        "q": -60
      },
      "geometry": {
        "type": "Point",
        "coordinates": [
          392450.0,
          5120525.0
        ]
      }
    },
    {
      "type": "Feature",
      "properties": {
        "id": "PW-02",
        "layer": 2,
        "screen_top": 63.0,
        "screen_bottom": 49.0,
        "q": -120
      },
      "geometry": {
        "type": "Point",
        "coordinates": [
          392990.0,
          5120840.0
        ]
      }
    },
    {
      "type": "Feature",
      "properties": {
        "id": "IW-03",
        "layer": 1,
        "screen_top": 83.0,
        "screen_bottom": 71.0,
        "q": 45
      },
      "geometry": {
        "type": "Point",
        "coordinates": [
          393260.0,
          5120375.0
        ]
      }
    }
  ]
}