{
  "type": "FeatureCollection",
  "features": [
    {
      "type": "Feature",
      "properties": {
        "id": "MW-01",
        "layer": 1,
        "screen_top": 126.0,
        "screen_bottom": 110.0,
        "q": -60
      },
      "geometry": {
        "type": "Point",
        "coordinates": [
          500350.0,
          4640350.0
        ]
      }
    },
    {
      "type": "Feature",
      "properties": {
        "id": "PW-02",
        "layer": 2,
        "screen_top": 104.0,
        "screen_bottom": 90.0,
        "q": -120
      },
      "geometry": {
        "type": "Point",
        "coordinates": [
          500770.0,
          4640560.0
        ]
      }
    },
    {
      "type": "Feature",
      "properties": {
        "id": "IW-03",
        "layer": 1,
        "screen_top": 124.0,
        "screen_bottom": 112.0,
        "q": 45
      },
      "geometry": {
        "type": "Point",
        "coordinates": [
          500980.0,
          4640250.0
        ]
      }
    }
  ]
}